NORAD_CAT_ID,OBJECT_NAME,OBJECT_TYPE,EPOCH,MEAN_MOTION,ECCENTRICITY,INCLINATION,RA_OF_ASC_NODE,ARG_OF_PERICENTER,MEAN_ANOMALY,BSTAR,MEAN_MOTION_DOT,MEAN_MOTION_DDOT,TLE_LINE0,TLE_LINE1,TLE_LINE2,SEMIMAJOR_AXIS,PERIOD,APOGEE,PERIGEE,DECAYED
53182.0,STARLINK-4278,PAYLOAD,2024-04-14 22:07:14,15.08840857,0.0001383,53.2197,13.5534,107.7458,252.3686,9.6699e-05,1.251e-05,0.0,0 STARLINK-4278,1 53182U 22083BC  24105.92169696  .00001251  00000-0  96699-4 0  9996,2 53182  53.2197  13.5534 0001383 107.7458 252.3686 15.08840857 96964,6917.878,95.438,540.7,538.786,0.0
53182.0,STARLINK-4278,PAYLOAD,2024-04-15 01:18:00,15.08842367,0.0001328,53.2194,12.9581,97.4716,262.6427,0.00010515,1.386e-05,0.0,0 STARLINK-4278,1 53182U 22083BC  24106.05417611  .00001386  00000-0  10515-3 0  9995,2 53182  53.2194  12.9581 0001328  97.4716 262.6427 15.08842367 96984,6917.873,95.437,540.657,538.819,0.0
53182.0,STARLINK-4278,PAYLOAD,2024-04-15 17:11:52,15.08843841,0.0001381,53.2196,9.9846,91.3766,268.7384,0.00012963,1.776e-05,0.0,0 STARLINK-4278,1 53182U 22083BC  24106.71657476  .00001776  00000-0  12963-3 0  9995,2 53182  53.2196   9.9846 0001381  91.3766 268.7384 15.08843841 97723,6917.869,95.437,540.689,538.778,0.0
53182.0,STARLINK-4278,PAYLOAD,2024-04-15 21:58:01,15.08844322,0.0001388,53.2188,9.0926,91.2851,268.8301,0.00014285,1.987e-05,0.0,0 STARLINK-4278,1 53182U 22083BC  24106.91529413  .00001987  00000-0  14285-3 0  9999,2 53182  53.2188   9.0926 0001388  91.2851 268.8301 15.08844322 97113,6917.867,95.437,540.692,538.772,0.0
53182.0,STARLINK-4278,PAYLOAD,2024-04-16 10:41:05,15.08860876,0.0001514,53.2202,6.7153,91.0128,269.1037,0.00035445,5.361e-05,0.0,0 STARLINK-4278,1 53182U 22083BC  24107.44520474  .00005361  00000-0  35445-3 0  9997,2 53182  53.2202   6.7153 0001514  91.0128 269.1037 15.08860876 97833,6917.817,95.436,540.729,538.634,0.0
53182.0,STARLINK-4278,PAYLOAD,2024-04-16 21:48:48,15.08844898,0.0001337,53.2187,4.6353,91.5255,268.589,9.5802e-05,1.237e-05,0.0,0 STARLINK-4278,1 53182U 22083BC  24107.90889080  .00001237  00000-0  95802-4 0  9991,2 53182  53.2187   4.6353 0001337  91.5255 268.5890 15.08844898 97266,6917.865,95.437,540.655,538.805,0.0
53182.0,STARLINK-4278,PAYLOAD,2024-04-17 02:34:56,15.0886907,0.0001344,53.218,3.7428,109.1948,250.9189,0.00050033,7.69e-05,0.0,0 STARLINK-4278,1 53182U 22083BC  24108.10759876  .00007690  00000-0  50033-3 0  9998,2 53182  53.2180   3.7428 0001344 109.1948 250.9189 15.08869070 97293,6917.792,95.436,540.586,538.727,0.0
53182.0,STARLINK-4278,PAYLOAD,2024-04-17 20:04:12,15.0883217,0.0001411,53.2159,0.4733,103.0811,257.0339,-4.8892e-05,-1.066e-05,0.0,0 STARLINK-4278,1 53182U 22083BC  24108.83625489 -.00001066  00000-0 -48892-4 0  9994,2 53182  53.2159   0.4733 0001411 103.0811 257.0339 15.08832170 98049,6917.904,95.438,540.745,538.793,0.0
53182.0,STARLINK-4278,PAYLOAD,2024-04-17 23:14:58,15.08830663,0.0001251,53.2188,359.8755,119.5962,240.5155,-0.0001756,-3.081e-05,0.0,0 STARLINK-4278,1 53182U 22083BC  24108.96873483 -.00003081  00000-0 -17560-3 0  9993,2 53182  53.2188 359.8755 0001251 119.5962 240.5155 15.08830663 97426,6917.909,95.438,540.639,538.908,0.0
53182.0,STARLINK-4278,PAYLOAD,2024-04-18 19:55:00,15.08827611,0.0001037,53.2183,356.014,99.3264,260.7845,0.00010848,1.439e-05,0.0,0 STARLINK-4278,1 53182U 22083BC  24109.82986636  .00001439  00000-0  10848-3 0  9999,2 53182  53.2183 356.0140 0001037  99.3264 260.7845 15.08827611 98194,6917.918,95.438,540.501,539.066,0.0
53182.0,STARLINK-4278,PAYLOAD,2024-04-18 21:30:23,15.0883092,0.0001192,53.2184,355.7145,64.992,295.1196,0.0001975,2.856e-05,0.0,0 STARLINK-4278,1 53182U 22083BC  24109.89610714  .00002856  00000-0  19750-3 0  9992,2 53182  53.2184 355.7145 0001192  64.9920 295.1196 15.08830920 97563,6917.908,95.438,540.598,538.949,0.0
53182.0,STARLINK-4278,PAYLOAD,2024-04-19 19:45:47,15.08857871,0.0001207,53.2189,351.5519,79.0519,281.0609,0.00076824,0.00011966,0.0,0 STARLINK-4278,1 53182U 22083BC  24110.82346263  .00011966  00000-0  76824-3 0  9999,2 53182  53.2189 351.5519 0001207  79.0519 281.0609 15.08857871 98349,6917.826,95.436,540.526,538.856,0.0
53182.0,STARLINK-4278,PAYLOAD,2024-04-19 21:21:10,15.08865444,0.0001252,53.2186,351.2556,75.8297,284.2834,0.00093328,0.00014607,0.0,0 STARLINK-4278,1 53182U 22083BC  24110.88970130  .00014607  00000-0  93328-3 0  9994,2 53182  53.2186 351.2556 0001252  75.8297 284.2834 15.08865444 97711,6917.803,95.436,540.534,538.802,0.0
53182.0,STARLINK-4278,PAYLOAD,2024-04-19 22:56:33,15.08873803,0.0001257,53.2191,350.9581,81.7163,278.3972,0.0012174,0.00019158,0.0,0 STARLINK-4278,1 53182U 22083BC  24110.95593941  .00019158  00000-0  12174-2 0  9998,2 53182  53.2191 350.9581 0001257  81.7163 278.3972 15.08873803 98361,6917.777,95.435,540.512,538.773,0.0
53182.0,STARLINK-4278,PAYLOAD,2024-04-20 19:36:34,15.08848754,0.0001189,53.2188,347.0919,94.5777,265.5351,0.00024788,3.66e-05,0.0,0 STARLINK-4278,1 53182U 22083BC  24111.81706023  .00003660  00000-0  24788-3 0  9997,2 53182  53.2188 347.0919 0001189  94.5777 265.5351 15.08848754 98496,6917.854,95.437,540.541,538.896,0.0
53182.0,STARLINK-4278,PAYLOAD,2024-04-21 01:58:06,15.08834657,0.0001429,53.2188,345.9059,34.6137,325.4948,0.0001068,1.412e-05,0.0,0 STARLINK-4278,1 53182U 22083BC  24112.08202501  .00001412  00000-0  10680-3 0  9998,2 53182  53.2188 345.9059 0001429  34.6137 325.4948 15.08834657 98530,6917.897,95.438,540.75,538.773,0.0
53182.0,STARLINK-4278,PAYLOAD,2024-04-21 14:41:12,15.08828865,0.0001329,53.2182,343.525,46.9954,313.115,0.00048859,7.494e-05,0.0,0 STARLINK-4278,1 53182U 22083BC  24112.61195179  .00007494  00000-0  48859-3 0  9994,2 53182  53.2182 343.5250 0001329  46.9954 313.1150 15.08828865 97973,6917.914,95.438,540.699,538.86,0.0
53182.0,STARLINK-4278,PAYLOAD,2024-04-21 22:38:08,15.08842842,0.0001257,53.218,342.0366,72.245,287.8679,0.00078031,0.00012153,0.0,0 STARLINK-4278,1 53182U 22083BC  24112.94315002  .00012153  00000-0  78031-3 0  9992,2 53182  53.2180 342.0366 0001257  72.2450 287.8679 15.08842842 98027,6917.872,95.437,540.606,538.867,0.0
53182.0,STARLINK-4278,PAYLOAD,2024-04-22 00:13:31,15.08851687,0.0001365,53.2186,341.7387,99.2599,260.8548,0.0011472,0.00018023,0.0,0 STARLINK-4278,1 53182U 22083BC  24113.00938852  .00018023  00000-0  11472-2 0  9991,2 53182  53.2186 341.7387 0001365  99.2599 260.8548 15.08851687 98679,6917.845,95.437,540.654,538.765,0.0
53182.0,STARLINK-4278,PAYLOAD,2024-04-22 20:53:31,15.08849931,0.0002383,53.2179,337.8734,154.9408,205.17,0.00045317,6.933e-05,0.0,0 STARLINK-4278,1 53182U 22083BC  24113.87050533  .00006933  00000-0  45317-3 0  9990,2 53182  53.2179 337.8734 0002383 154.9408 205.1700 15.08849931 98808,6917.85,95.437,541.364,538.067,0.0
53182.0,STARLINK-4278,PAYLOAD,2024-04-22 22:28:55,15.08846658,0.0001288,53.2178,337.5752,106.1076,254.0058,0.00049416,7.587e-05,0.0,0 STARLINK-4278,1 53182U 22083BC  24113.93675057  .00007587  00000-0  49416-3 0  9991,2 53182  53.2178 337.5752 0001288 106.1076 254.0058 15.08846658 98179,6917.86,95.437,540.616,538.834,0.0
53182.0,STARLINK-4278,PAYLOAD,2024-04-23 00:04:18,15.08842259,0.0001637,53.2173,337.2748,141.7105,218.4004,0.0002075,3.016e-05,0.0,0 STARLINK-4278,1 53182U 22083BC  24114.00298781  .00003016  00000-0  20750-3 0  9998,2 53182  53.2173 337.2748 0001637 141.7105 218.4004 15.08842259 98822,6917.873,95.437,540.871,538.606,0.0
53182.0,STARLINK-4278,PAYLOAD,2024-04-23 20:44:19,15.08843589,0.0001227,53.2175,333.4101,117.7019,242.4098,0.00029063,4.341e-05,0.0,0 STARLINK-4278,1 53182U 22083BC  24114.86411059  .00004341  00000-0  29063-3 0  9995,2 53182  53.2175 333.4101 0001227 117.7019 242.4098 15.08843589 98958,6917.869,95.437,540.583,538.886,0.0
53182.0,STARLINK-4278,PAYLOAD,2024-04-23 22:19:42,15.08845725,0.0001228,53.2176,333.1118,119.0045,241.107,0.00024453,3.607e-05,0.0,0 STARLINK-4278,1 53182U 22083BC  24114.93034955  .00003607  00000-0  24453-3 0  9991,2 53182  53.2176 333.1118 0001228 119.0045 241.1070 15.08845725 98320,6917.863,95.437,540.577,538.878,0.0
53182.0,STARLINK-4278,PAYLOAD,2024-04-24 20:35:06,15.08847215,0.0001147,53.2179,328.951,112.8974,247.214,0.00023745,3.494e-05,0.0,0 STARLINK-4278,1 53182U 22083BC  24115.85770890  .00003494  00000-0  23745-3 0  9995,2 53182  53.2179 328.9510 0001147 112.8974 247.2140 15.08847215 98469,6917.858,95.437,540.517,538.93,0.0
53182.0,STARLINK-4278,PAYLOAD,2024-04-25 20:25:53,15.08840932,0.0001034,53.2173,324.4964,114.1872,245.9229,3.0283e-05,1.94e-06,0.0,0 STARLINK-4278,1 53182U 22083BC  24116.85131157  .00000194  00000-0  30283-4 0  9993,2 53182  53.2173 324.4964 0001034 114.1872 245.9229 15.08840932 99254,6917.878,95.437,540.458,539.027,0.0
53182.0,STARLINK-4278,PAYLOAD,2024-04-26 13:55:07,15.08842916,8.92e-05,53.2168,321.2173,114.6653,245.4432,0.00015146,2.124e-05,0.0,0 STARLINK-4278,1 53182U 22083BC  24117.57994803  .00002124  00000-0  15146-3 0  9993,2 53182  53.2168 321.2173 0000892 114.6653 245.4432 15.08842916 98724,6917.871,95.437,540.354,539.119,0.0
53182.0,STARLINK-4278,PAYLOAD,2024-04-26 17:05:53,15.08850338,8.39e-05,53.2174,320.611,61.5621,298.5456,-6.113e-05,-1.261e-05,0.0,0 STARLINK-4278,1 53182U 22083BC  24117.71242808 -.00001261  00000-0 -61130-4 0  9998,2 53182  53.2174 320.6110 0000839  61.5621 298.5456 15.08850338 98745,6917.849,95.437,540.294,539.133,0.0
53182.0,STARLINK-4278,PAYLOAD,2024-04-27 18:32:05,15.08829941,0.0001004,53.2177,315.864,93.8767,266.234,-4.11e-06,-3.53e-06,0.0,0 STARLINK-4278,1 53182U 22083BC  24118.77228160 -.00000353  00000-0 -41100-5 0  9997,2 53182  53.2177 315.8640 0001004  93.8767 266.2340 15.08829941 99545,6917.911,95.438,540.471,539.082,0.0
53182.0,STARLINK-4278,PAYLOAD,2024-04-28 05:39:46,15.08838581,0.0001079,53.2185,313.7829,81.9762,278.1352,5.5799e-05,6e-06,0.0,0 STARLINK-4278,1 53182U 22083BC  24119.23595711  .00000600  00000-0  55799-4 0  9999,2 53182  53.2185 313.7829 0001079  81.9762 278.1352 15.08838581 99618,6917.885,95.438,540.496,539.003,0.0
